start=new Date('2022-02-09T00:00:00.000Z').valueOf();
sats=[{"SEMIMAJOR_AXIS":"6727.800","CLASSIFICATION_TYPE":"U","MEAN_MOTION_DOT":"-0.00004120","APOAPSIS":"350.836","RCS_SIZE":"LARGE","TLE_LINE2":"2 50815  53.2153  36.0563 0001740  25.7066  26.3105 15.73233298  6490","OBJECT_TYPE":"PAYLOAD","ECCENTRICITY":"0.00017400","CENTER_NAME":"EARTH","ELEMENT_SET_NO":"999","LAUNCH_DATE":"2022-01-06","TLE_LINE1":"1 50815U 22001N   22039.83335648 -.00004120  00000-0 -24906-4 0  9994","NORAD_CAT_ID":"50815","EPHEMERIS_TYPE":"0","SITE":"AFETR","EPOCH":"2022-02-08T20:00:01.999872","INCLINATION":"53.2153","MEAN_ANOMALY":"26.3105","ARG_OF_PERICENTER":"25.7066","FILE":"3295346","TIME_SYSTEM":"UTC","RA_OF_ASC_NODE":"36.0563","REF_FRAME":"TEME","MEAN_ELEMENT_THEORY":"SGP4","OBJECT_NAME":"STARLINK-3234","DECAY_DATE":null,"PERIAPSIS":"348.495","OBJECT_ID":"2022-001N","COUNTRY_CODE":"US","MEAN_MOTION":"15.73233298","GP_ID":"195580435","PERIOD":"91.531","MEAN_MOTION_DDOT":"0.0000000000000","REV_AT_EPOCH":"649","BSTAR":"-0.00002490600000"},{"EPHEMERIS_TYPE":"0","NORAD_CAT_ID":"50816","LAUNCH_DATE":"2022-01-06","TLE_LINE1":"1 50816U 22001P   22039.83335648  .00091151  00000-0  64812-3 0  9992","EPOCH":"2022-02-08T20:00:01.999872","SITE":"AFETR","MEAN_ANOMALY":"18.8144","INCLINATION":"53.2146","FILE":"3295365","ARG_OF_PERICENTER":"38.3024","TIME_SYSTEM":"UTC","REF_FRAME":"TEME","RA_OF_ASC_NODE":"36.0450","MEAN_ELEMENT_THEORY":"SGP4","OBJECT_NAME":"STARLINK-3342","DECAY_DATE":null,"CLASSIFICATION_TYPE":"U","MEAN_MOTION_DOT":"0.00091151","SEMIMAJOR_AXIS":"6728.028","RCS_SIZE":"LARGE","APOAPSIS":"351.046","TLE_LINE2":"2 50816  53.2146  36.0450 0001713  38.3024  18.8144 15.73153395  6502","ECCENTRICITY":"0.00017130","OBJECT_TYPE":"PAYLOAD","ELEMENT_SET_NO":"999","CENTER_NAME":"EARTH","MEAN_MOTION":"15.73153395","COUNTRY_CODE":"US","GP_ID":"195580748","PERIOD":"91.536","MEAN_MOTION_DDOT":"0.0000000000000","REV_AT_EPOCH":"650","BSTAR":"0.00064812000000","PERIAPSIS":"348.741","OBJECT_ID":"2022-001P"},{"CENTER_NAME":"EARTH","ELEMENT_SET_NO":"999","ECCENTRICITY":"0.00018730","OBJECT_TYPE":"PAYLOAD","TLE_LINE2":"2 50817  53.2145  37.2926 0001873  36.3542  39.5146 15.73227446  3703","SEMIMAJOR_AXIS":"6727.817","CLASSIFICATION_TYPE":"U","MEAN_MOTION_DOT":"0.00020825","RCS_SIZE":"LARGE","APOAPSIS":"350.942","MEAN_ELEMENT_THEORY":"SGP4","OBJECT_NAME":"STARLINK-3341","DECAY_DATE":null,"TIME_SYSTEM":"UTC","RA_OF_ASC_NODE":"37.2926","REF_FRAME":"TEME","INCLINATION":"53.2145","MEAN_ANOMALY":"39.5146","ARG_OF_PERICENTER":"36.3542","FILE":"3295096","TLE_LINE1":"1 50817U 22001Q   22039.58334491  .00020825  00000-0  15225-3 0  9994","LAUNCH_DATE":"2022-01-06","EPHEMERIS_TYPE":"0","NORAD_CAT_ID":"50817","EPOCH":"2022-02-08T14:00:01.000224","SITE":"AFETR","PERIAPSIS":"348.422","OBJECT_ID":"2022-001Q","REV_AT_EPOCH":"370","MEAN_MOTION_DDOT":"0.0000000000000","BSTAR":"0.00015225000000","PERIOD":"91.532","GP_ID":"195549928","COUNTRY_CODE":"US","MEAN_MOTION":"15.73227446"},{"PERIOD":"91.532","MEAN_MOTION_DDOT":"0.0000000000000","REV_AT_EPOCH":"370","BSTAR":"0.00012977000000","MEAN_MOTION":"15.73212322","COUNTRY_CODE":"US","GP_ID":"195550180","PERIAPSIS":"348.249","OBJECT_ID":"2022-001R","TIME_SYSTEM":"UTC","REF_FRAME":"TEME","RA_OF_ASC_NODE":"37.2853","MEAN_ELEMENT_THEORY":"SGP4","OBJECT_NAME":"STARLINK-3336","DECAY_DATE":null,"NORAD_CAT_ID":"50818","EPHEMERIS_TYPE":"0","LAUNCH_DATE":"2022-01-06","TLE_LINE1":"1 50818U 22001R   22039.58334491  .00017640  00000-0  12977-3 0  9997","SITE":"AFETR","EPOCH":"2022-02-08T14:00:01.000224","MEAN_ANOMALY":"67.3347","INCLINATION":"53.2150","FILE":"3295096","ARG_OF_PERICENTER":"11.7244","OBJECT_TYPE":"PAYLOAD","ECCENTRICITY":"0.00021940","ELEMENT_SET_NO":"999","CENTER_NAME":"EARTH","CLASSIFICATION_TYPE":"U","MEAN_MOTION_DOT":"0.00017640","SEMIMAJOR_AXIS":"6727.860","APOAPSIS":"351.201","RCS_SIZE":"LARGE","TLE_LINE2":"2 50818  53.2150  37.2853 0002194  11.7244  67.3347 15.73212322  3701"},{"MEAN_ELEMENT_THEORY":"SGP4","OBJECT_NAME":"STARLINK-3327","DECAY_DATE":null,"TIME_SYSTEM":"UTC","REF_FRAME":"TEME","RA_OF_ASC_NODE":"37.2872","MEAN_ANOMALY":"53.8738","INCLINATION":"53.2155","FILE":"3295096","ARG_OF_PERICENTER":"23.9090","NORAD_CAT_ID":"50819","EPHEMERIS_TYPE":"0","TLE_LINE1":"1 50819U 22001S   22039.58334491  .00011653  00000-0  87281-4 0  9997","LAUNCH_DATE":"2022-01-06","SITE":"AFETR","EPOCH":"2022-02-08T14:00:01.000224","ELEMENT_SET_NO":"999","CENTER_NAME":"EARTH","ECCENTRICITY":"0.00019970","OBJECT_TYPE":"PAYLOAD","TLE_LINE2":"2 50819  53.2155  37.2872 0001997  23.9090  53.8738 15.73213524  3701","CLASSIFICATION_TYPE":"U","MEAN_MOTION_DOT":"0.00011653","SEMIMAJOR_AXIS":"6727.857","APOAPSIS":"351.065","RCS_SIZE":"LARGE","REV_AT_EPOCH":"370","MEAN_MOTION_DDOT":"0.0000000000000","BSTAR":"0.00008728100000","PERIOD":"91.532","GP_ID":"195550919","MEAN_MOTION":"15.73213524","COUNTRY_CODE":"US","PERIAPSIS":"348.378","OBJECT_ID":"2022-001S"},{"OBJECT_ID":"2022-001T","PERIAPSIS":"348.285","GP_ID":"195580574","MEAN_MOTION":"15.73237073","COUNTRY_CODE":"US","BSTAR":"-0.00004908500000","MEAN_MOTION_DDOT":"0.0000000000000","REV_AT_EPOCH":"650","PERIOD":"91.531","TLE_LINE2":"2 50820  53.2163  36.0438 0002035  21.2521  36.5190 15.73237073  6507","RCS_SIZE":"LARGE","APOAPSIS":"351.024","MEAN_MOTION_DOT":"-0.00007516","CLASSIFICATION_TYPE":"U","SEMIMAJOR_AXIS":"6727.789","ELEMENT_SET_NO":"999","CENTER_NAME":"EARTH","ECCENTRICITY":"0.00020350","OBJECT_TYPE":"PAYLOAD","FILE":"3295362","ARG_OF_PERICENTER":"21.2521","MEAN_ANOMALY":"36.5190","INCLINATION":"53.2163","EPOCH":"2022-02-08T20:00:01.999872","SITE":"AFETR","EPHEMERIS_TYPE":"0","NORAD_CAT_ID":"50820","LAUNCH_DATE":"2022-01-06","TLE_LINE1":"1 50820U 22001T   22039.83335648 -.00007516  00000-0 -49085-4 0  9997","DECAY_DATE":null,"OBJECT_NAME":"STARLINK-3339","MEAN_ELEMENT_THEORY":"SGP4","REF_FRAME":"TEME","RA_OF_ASC_NODE":"36.0438","TIME_SYSTEM":"UTC"},{"COUNTRY_CODE":"US","MEAN_MOTION":"15.73215989","GP_ID":"195550429","PERIOD":"91.532","MEAN_MOTION_DDOT":"0.0000000000000","REV_AT_EPOCH":"370","BSTAR":"0.00015354000000","PERIAPSIS":"348.345","OBJECT_ID":"2022-001U","LAUNCH_DATE":"2022-01-06","TLE_LINE1":"1 50821U 22001U   22039.58334491  .00020997  00000-0  15354-3 0  9992","NORAD_CAT_ID":"50821","EPHEMERIS_TYPE":"0","SITE":"AFETR","EPOCH":"2022-02-08T14:00:01.000224","INCLINATION":"53.2143","MEAN_ANOMALY":"62.6103","ARG_OF_PERICENTER":"20.9150","FILE":"3295096","TIME_SYSTEM":"UTC","RA_OF_ASC_NODE":"37.2773","REF_FRAME":"TEME","MEAN_ELEMENT_THEORY":"SGP4","OBJECT_NAME":"STARLINK-3346","DECAY_DATE":null,"SEMIMAJOR_AXIS":"6727.850","CLASSIFICATION_TYPE":"U","MEAN_MOTION_DOT":"0.00020997","RCS_SIZE":"LARGE","APOAPSIS":"351.084","TLE_LINE2":"2 50821  53.2143  37.2773 0002036  20.9150  62.6103 15.73215989  3701","ECCENTRICITY":"0.00020360","OBJECT_TYPE":"PAYLOAD","CENTER_NAME":"EARTH","ELEMENT_SET_NO":"999"},{"TLE_LINE2":"2 50822  53.2152  36.0402 0002189  31.7019  27.3410 15.73227581  6478","APOAPSIS":"351.154","RCS_SIZE":"LARGE","MEAN_MOTION_DOT":"0.00004390","CLASSIFICATION_TYPE":"U","SEMIMAJOR_AXIS":"6727.817","ELEMENT_SET_NO":"999","CENTER_NAME":"EARTH","ECCENTRICITY":"0.00021890","OBJECT_TYPE":"PAYLOAD","FILE":"3295355","ARG_OF_PERICENTER":"31.7019","MEAN_ANOMALY":"27.3410","INCLINATION":"53.2152","EPOCH":"2022-02-08T20:00:01.999872","SITE":"AFETR","EPHEMERIS_TYPE":"0","NORAD_CAT_ID":"50822","TLE_LINE1":"1 50822U 22001V   22039.83335648  .00004390  00000-0  35644-4 0  9990","LAUNCH_DATE":"2022-01-06","DECAY_DATE":null,"OBJECT_NAME":"STARLINK-3343","MEAN_ELEMENT_THEORY":"SGP4","REF_FRAME":"TEME","RA_OF_ASC_NODE":"36.0402","TIME_SYSTEM":"UTC","OBJECT_ID":"2022-001V","PERIAPSIS":"348.209","GP_ID":"195580080","MEAN_MOTION":"15.73227581","COUNTRY_CODE":"US","BSTAR":"0.00003564400000","REV_AT_EPOCH":"647","MEAN_MOTION_DDOT":"0.0000000000000","PERIOD":"91.532"},{"GP_ID":"195580084","MEAN_MOTION":"15.73141624","COUNTRY_CODE":"US","MEAN_MOTION_DDOT":"0.0000000000000","REV_AT_EPOCH":"650","BSTAR":"0.00064276000000","PERIOD":"91.537","PERIAPSIS":"348.557","OBJECT_ID":"2022-001W","MEAN_ANOMALY":"32.2497","INCLINATION":"53.2144","FILE":"3295355","ARG_OF_PERICENTER":"21.0110","EPHEMERIS_TYPE":"0","NORAD_CAT_ID":"50823","TLE_LINE1":"1 50823U 22001W   22039.83335648  .00090339  00000-0  64276-3 0  9991","LAUNCH_DATE":"2022-01-06","EPOCH":"2022-02-08T20:00:01.999872","SITE":"AFETR","OBJECT_NAME":"STARLINK-3334","MEAN_ELEMENT_THEORY":"SGP4","DECAY_DATE":null,"TIME_SYSTEM":"UTC","REF_FRAME":"TEME","RA_OF_ASC_NODE":"36.0521","TLE_LINE2":"2 50823  53.2144  36.0521 0002036  21.0110  32.2497 15.73141624  6504","MEAN_MOTION_DOT":"0.00090339","CLASSIFICATION_TYPE":"U","SEMIMAJOR_AXIS":"6728.062","APOAPSIS":"351.296","RCS_SIZE":"LARGE","ELEMENT_SET_NO":"999","CENTER_NAME":"EARTH","ECCENTRICITY":"0.00020360","OBJECT_TYPE":"PAYLOAD"},{"OBJECT_ID":"2022-001X","PERIAPSIS":"348.246","GP_ID":"195550935","MEAN_MOTION":"15.73222677","COUNTRY_CODE":"US","BSTAR":"0.00014337000000","MEAN_MOTION_DDOT":"0.0000000000000","REV_AT_EPOCH":"370","PERIOD":"91.532","TLE_LINE2":"2 50824  53.2152  37.2776 0002155  29.3394  53.5341 15.73222677  3707","APOAPSIS":"351.145","RCS_SIZE":"LARGE","MEAN_MOTION_DOT":"0.00019567","CLASSIFICATION_TYPE":"U","SEMIMAJOR_AXIS":"6727.831","ELEMENT_SET_NO":"999","CENTER_NAME":"EARTH","OBJECT_TYPE":"PAYLOAD","ECCENTRICITY":"0.00021550","FILE":"3295096","ARG_OF_PERICENTER":"29.3394","MEAN_ANOMALY":"53.5341","INCLINATION":"53.2152","EPOCH":"2022-02-08T14:00:01.000224","SITE":"AFETR","NORAD_CAT_ID":"50824","EPHEMERIS_TYPE":"0","LAUNCH_DATE":"2022-01-06","TLE_LINE1":"1 50824U 22001X   22039.58334491  .00019567  00000-0  14337-3 0  9996","DECAY_DATE":null,"OBJECT_NAME":"STARLINK-3340","MEAN_ELEMENT_THEORY":"SGP4","REF_FRAME":"TEME","RA_OF_ASC_NODE":"37.2776","TIME_SYSTEM":"UTC"}];
